NORAD_CAT_ID,OBJECT_NAME,OBJECT_TYPE,EPOCH,MEAN_MOTION,ECCENTRICITY,INCLINATION,RA_OF_ASC_NODE,ARG_OF_PERICENTER,MEAN_ANOMALY,BSTAR,MEAN_MOTION_DOT,MEAN_MOTION_DDOT,TLE_LINE0,TLE_LINE1,TLE_LINE2,SEMIMAJOR_AXIS,PERIOD,APOGEE,PERIGEE,DECAYED
54092.0,STARLINK-5190,PAYLOAD,2024-04-02 20:58:45,15.18774127,0.0001523,53.2184,257.5219,258.5659,101.5167,0.0015222,0.00031858,0.0,0 STARLINK-5190,1 54092U 22136AT  24093.87414130  .00031858  00000-0  15222-2 0  9999,2 54092  53.2184 257.5219 0001523 258.5659 101.5167 15.18774127 80504,6887.681,94.813,510.595,508.497,0.0
54092.0,STARLINK-5190,PAYLOAD,2024-04-03 11:11:36,15.18809968,0.0001555,53.2184,254.8221,263.3235,96.7585,0.0013693,0.00028643,0.0,0 STARLINK-5190,1 54092U 22136AT  24094.46639104  .00028643  00000-0  13693-2 0  9993,2 54092  53.2184 254.8221 0001555 263.3235  96.7585 15.18809968 80596,6887.573,94.811,510.509,508.367,0.0
54092.0,STARLINK-5190,PAYLOAD,2024-04-03 17:30:38,15.18825086,0.0001577,53.2182,253.6223,265.816,94.2656,0.0013885,0.00029063,0.0,0 STARLINK-5190,1 54092U 22136AT  24094.72960890  .00029063  00000-0  13885-2 0  9991,2 54092  53.2182 253.6223 0001577 265.8160  94.2656 15.18825086 80637,6887.527,94.81,510.478,508.306,0.0
54092.0,STARLINK-5190,PAYLOAD,2024-04-04 10:52:57,15.18861195,0.0001645,53.2179,250.3227,269.8042,90.2766,0.0011202,0.00023392,0.0,0 STARLINK-5190,1 54092U 22136AT  24095.45344531  .00023392  00000-0  11202-2 0  9990,2 54092  53.2179 250.3227 0001645 269.8042  90.2766 15.18861195 81214,6887.418,94.808,510.416,508.15,0.0
54092.0,STARLINK-5190,PAYLOAD,2024-04-04 14:02:28,15.18865214,0.0001684,53.2179,249.7228,271.8266,88.2537,0.0011817,0.00024701,0.0,0 STARLINK-5190,1 54092U 22136AT  24095.58505129  .00024701  00000-0  11817-2 0  9993,2 54092  53.2179 249.7228 0001684 271.8266  88.2537 15.18865214 80769,6887.406,94.808,510.431,508.111,0.0
54092.0,STARLINK-5190,PAYLOAD,2024-04-04 17:11:59,15.1886834,0.0001694,53.218,249.1228,274.0865,85.9938,0.001147,0.00023966,0.0,0 STARLINK-5190,1 54092U 22136AT  24095.71665658  .00023966  00000-0  11470-2 0  9999,2 54092  53.2180 249.1228 0001694 274.0865  85.9938 15.18868340 80780,6887.397,94.807,510.428,508.095,0.0
54092.0,STARLINK-5190,PAYLOAD,2024-04-05 02:40:31,15.18879377,0.0001748,53.2179,247.3225,276.2347,83.845,0.0010733,0.00022408,0.0,0 STARLINK-5190,1 54092U 22136AT  24096.11146993  .00022408  00000-0  10733-2 0  9991,2 54092  53.2179 247.3225 0001748 276.2347  83.8450 15.18879377 81312,6887.363,94.807,510.432,508.024,0.0
54092.0,STARLINK-5190,PAYLOAD,2024-04-05 13:43:47,15.18890797,0.0001713,53.2182,245.2227,276.6778,83.4023,0.00080298,0.00016676,0.0,0 STARLINK-5190,1 54092U 22136AT  24096.57208150  .00016676  00000-0  80298-3 0  9999,2 54092  53.2182 245.2227 0001713 276.6778  83.4023 15.18890797 80915,6887.329,94.806,510.373,508.014,0.0
54092.0,STARLINK-5190,PAYLOAD,2024-04-05 16:53:18,15.18895644,0.000172,53.2183,244.6227,277.2119,82.8682,0.0008299,0.0001725,0.0,0 STARLINK-5190,1 54092U 22136AT  24096.70368387  .00017250  00000-0  82990-3 0  9993,2 54092  53.2183 244.6227 0001720 277.2119  82.8682 15.18895644 81408,6887.314,94.806,510.364,507.994,0.0
54092.0,STARLINK-5190,PAYLOAD,2024-04-06 08:40:50,15.18917141,0.0001758,53.2182,241.6228,280.9251,79.1548,0.00081822,0.00017013,0.0,0 STARLINK-5190,1 54092U 22136AT  24097.36169046  .00017013  00000-0  81822-3 0  9997,2 54092  53.2182 241.6228 0001758 280.9251  79.1548 15.18917141 81030,6887.249,94.804,510.325,507.903,0.0
54092.0,STARLINK-5190,PAYLOAD,2024-04-06 16:34:35,15.18928661,0.0001791,53.2183,240.1227,282.5552,77.5244,0.00081248,0.00016897,0.0,0 STARLINK-5190,1 54092U 22136AT  24097.69068983  .00016897  00000-0  81248-3 0  9992,2 54092  53.2183 240.1227 0001791 282.5552  77.5244 15.18928661 81082,6887.214,94.804,510.313,507.846,0.0
54092.0,STARLINK-5190,PAYLOAD,2024-04-07 09:56:50,15.18956484,0.0001849,53.2182,236.8224,286.3313,73.748,0.0008313,0.00017311,0.0,0 STARLINK-5190,1 54092U 22136AT  24098.41447844  .00017311  00000-0  83130-3 0  9994,2 54092  53.2182 236.8224 0001849 286.3313  73.7480 15.18956484 81669,6887.13,94.802,510.269,507.722,0.0
54092.0,STARLINK-5190,PAYLOAD,2024-04-07 16:15:50,15.18966004,0.0001884,53.2182,235.6222,287.6612,72.4178,0.00082236,0.00017125,0.0,0 STARLINK-5190,1 54092U 22136AT  24098.67767117  .00017125  00000-0  82236-3 0  9999,2 54092  53.2182 235.6222 0001884 287.6612  72.4178 15.18966004 81231,6887.101,94.801,510.264,507.669,0.0
54092.0,STARLINK-5190,PAYLOAD,2024-04-08 01:44:20,15.18981637,0.0001905,53.2183,233.8219,290.3495,69.7297,0.00083637,0.00017431,0.0,0 STARLINK-5190,1 54092U 22136AT  24099.07245669  .00017431  00000-0  83637-3 0  9993,2 54092  53.2183 233.8219 0001905 290.3495  69.7297 15.18981637 81298,6887.054,94.8,510.231,507.607,0.0
54092.0,STARLINK-5190,PAYLOAD,2024-04-08 15:57:03,15.19010787,0.0001951,53.2175,231.1215,292.9611,67.118,0.0010171,0.00021297,0.0,0 STARLINK-5190,1 54092U 22136AT  24099.66462623  .00021297  00000-0  10171-2 0  9996,2 54092  53.2175 231.1215 0001951 292.9611  67.1180 15.19010787 81850,6886.966,94.799,510.175,507.487,0.0
54092.0,STARLINK-5190,PAYLOAD,2024-04-09 07:44:30,15.19039504,0.0002038,53.2173,228.1212,296.8537,63.2251,0.00091014,0.00019033,0.0,0 STARLINK-5190,1 54092U 22136AT  24100.32258015  .00019033  00000-0  91014-3 0  9991,2 54092  53.2173 228.1212 0002038 296.8537  63.2251 15.19039504 81481,6886.879,94.797,510.148,507.341,0.0
54092.0,STARLINK-5190,PAYLOAD,2024-04-09 15:38:14,15.1906052,0.0002064,53.2175,226.6222,298.033,62.0458,0.0012069,0.00025382,0.0,0 STARLINK-5190,1 54092U 22136AT  24100.65155143  .00025382  00000-0  12069-2 0  9991,2 54092  53.2175 226.6222 0002064 298.0330  62.0458 15.19060520 81535,6886.816,94.795,510.102,507.259,0.0
54092.0,STARLINK-5190,PAYLOAD,2024-04-10 01:06:41,15.19083533,0.0002066,53.2176,224.8219,300.085,59.9941,0.0012537,0.000264,0.0,0 STARLINK-5190,1 54092U 22136AT  24101.04631164  .00026400  00000-0  12537-2 0  9999,2 54092  53.2176 224.8219 0002066 300.0850  59.9941 15.19083533 82065,6886.746,94.794,510.034,507.188,0.0
54092.0,STARLINK-5190,PAYLOAD,2024-04-10 15:19:21,15.19118249,0.0002145,53.2174,222.1221,302.738,57.341,0.0012265,0.00025844,0.0,0 STARLINK-5190,1 54092U 22136AT  24101.63844012  .00025844  00000-0  12265-2 0  9991,2 54092  53.2174 222.1221 0002145 302.7380  57.3410 15.19118249 81685,6886.641,94.792,509.983,507.029,0.0
54092.0,STARLINK-5190,PAYLOAD,2024-04-10 18:28:49,15.19126105,0.0002162,53.2169,221.5219,304.3534,55.7258,0.0012416,0.00026174,0.0,0 STARLINK-5190,1 54092U 22136AT  24101.77002258  .00026174  00000-0  12416-2 0  9999,2 54092  53.2169 221.5219 0002162 304.3534  55.7258 15.19126105 81702,6886.617,94.791,509.971,506.994,0.0
54092.0,STARLINK-5190,PAYLOAD,2024-04-11 11:50:56,15.19178279,0.0002241,53.2171,218.2216,307.1795,52.8997,0.0014173,0.00029984,0.0,0 STARLINK-5190,1 54092U 22136AT  24102.49370967  .00029984  00000-0  14173-2 0  9998,2 54092  53.2171 218.2216 0002241 307.1795  52.8997 15.19178279 82284,6886.46,94.788,509.868,506.781,0.0
54092.0,STARLINK-5190,PAYLOAD,2024-04-11 13:25:40,15.19182358,0.0002236,53.2175,217.9211,306.9189,53.1602,0.0014266,0.00030187,0.0,0 STARLINK-5190,1 54092U 22136AT  24102.55949839  .00030187  00000-0  14266-2 0  9995,2 54092  53.2175 217.9211 0002236 306.9189  53.1602 15.19182358 81826,6886.447,94.788,509.852,506.773,0.0
54092.0,STARLINK-5190,PAYLOAD,2024-04-11 15:00:24,15.19184266,0.0002199,53.2172,217.6213,307.5609,52.5188,0.0013485,0.00028512,0.0,0 STARLINK-5190,1 54092U 22136AT  24102.62528732  .00028512  00000-0  13485-2 0  9999,2 54092  53.2172 217.6213 0002199 307.5609  52.5188 15.19184266 81837,6886.442,94.788,509.821,506.792,0.0
54092.0,STARLINK-5190,PAYLOAD,2024-04-12 00:28:49,15.19195041,0.000228,53.2165,215.8206,309.49,50.5895,0.00099404,0.00020918,0.0,0 STARLINK-5190,1 54092U 22136AT  24103.02001855  .00020918  00000-0  99404-3 0  9994,2 54092  53.2165 215.8206 0002280 309.4900  50.5895 15.19195041 82362,6886.409,94.787,509.844,506.704,0.0
54092.0,STARLINK-5190,PAYLOAD,2024-04-12 13:06:42,15.1920491,0.0002145,53.2179,213.4215,314.5724,45.5098,0.00090025,0.00018914,0.0,0 STARLINK-5190,1 54092U 22136AT  24103.54632482  .00018914  00000-0  90025-3 0  9990,2 54092  53.2179 213.4215 0002145 314.5724  45.5098 15.19204910 82446,6886.379,94.786,509.721,506.767,0.0
54092.0,STARLINK-5190,PAYLOAD,2024-04-12 14:41:26,15.19201333,0.0002258,53.2161,213.1217,310.0319,50.0479,0.00067476,0.00014086,0.0,0 STARLINK-5190,1 54092U 22136AT  24103.61211253  .00014086  00000-0  67476-3 0  9997,2 54092  53.2161 213.1217 0002258 310.0319  50.0479 15.19201333 81980,6886.39,94.787,509.81,506.7,0.0
54092.0,STARLINK-5190,PAYLOAD,2024-04-13 12:47:43,15.19214173,0.0002334,53.2156,208.9189,316.0254,44.0557,0.00046349,9.573e-05,0.0,0 STARLINK-5190,1 54092U 22136AT  24104.53314027  .00009573  00000-0  46349-3 0  9993,2 54092  53.2156 208.9189 0002334 316.0254  44.0557 15.19214173 82597,6886.351,94.786,509.824,506.609,0.0
54092.0,STARLINK-5190,PAYLOAD,2024-04-13 14:22:27,15.19218267,0.0002356,53.2158,208.6189,316.8094,43.2717,0.00054735,0.00011367,0.0,0 STARLINK-5190,1 54092U 22136AT  24104.59892710  .00011367  00000-0  54735-3 0  9991,2 54092  53.2158 208.6189 0002356 316.8094  43.2717 15.19218267 82137,6886.339,94.786,509.826,506.581,0.0
54092.0,STARLINK-5190,PAYLOAD,2024-04-14 12:28:42,15.19244928,0.0002415,53.2153,204.4177,320.7622,39.32,0.00060502,0.0001261,0.0,0 STARLINK-5190,1 54092U 22136AT  24105.51993747  .00012610  00000-0  60502-3 0  9997,2 54092  53.2153 204.4177 0002415 320.7622  39.3200 15.19244928 82743,6886.258,94.784,509.786,506.46,0.0
54092.0,STARLINK-5190,PAYLOAD,2024-04-14 14:03:26,15.19245817,0.0002564,53.2152,204.1186,324.6843,35.3983,0.00058536,0.0001219,0.0,0 STARLINK-5190,1 54092U 22136AT  24105.58572424  .00012190  00000-0  58536-3 0  9996,2 54092  53.2152 204.1186 0002564 324.6843  35.3983 15.19245817 82283,6886.256,94.784,509.886,506.355,0.0
